{"fetched_at":"2026-07-13T18:16:58.106Z","source":"https://celestrak.org/NORAD/elements/gp.php?NAME=HULIANWANG&FORMAT=JSON","constellation":"guowang","records":[{"OBJECT_NAME":"HULIANWANG DIGUI-108","OBJECT_ID":"2025-285D","EPOCH":"2026-07-12T22:29:54.938688","CLASSIFICATION_TYPE":"U","MEAN_MOTION":13.29325842,"ECCENTRICITY":0.00009906,"INCLINATION":50.0057,"RA_OF_ASC_NODE":53.6441,"ARG_OF_PERICENTER":28.7808,"MEAN_ANOMALY":331.3119,"EPHEMERIS_TYPE":0,"NORAD_CAT_ID":66918,"ELEMENT_SET_NO":999,"REV_AT_EPOCH":2948,"BSTAR":0.000044432294,"MEAN_MOTION_DOT":-0.00000103,"MEAN_MOTION_DDOT":0},{"OBJECT_NAME":"HULIANWANG DIGUI-109","OBJECT_ID":"2025-285E","EPOCH":"2026-07-12T20:29:26.225664","CLASSIFICATION_TYPE":"U","MEAN_MOTION":13.29316515,"ECCENTRICITY":0.00009225,"INCLINATION":50.0081,"RA_OF_ASC_NODE":53.9137,"ARG_OF_PERICENTER":37.8748,"MEAN_ANOMALY":322.2189,"EPHEMERIS_TYPE":0,"NORAD_CAT_ID":66919,"ELEMENT_SET_NO":999,"REV_AT_EPOCH":2948,"BSTAR":0.000029927279,"MEAN_MOTION_DOT":-0.0000011,"MEAN_MOTION_DDOT":0},{"OBJECT_NAME":"HULIANWANG DIGUI-110","OBJECT_ID":"2025-285F","EPOCH":"2026-07-12T22:05:55.077504","CLASSIFICATION_TYPE":"U","MEAN_MOTION":13.29326327,"ECCENTRICITY":0.00009377,"INCLINATION":50.0114,"RA_OF_ASC_NODE":53.6579,"ARG_OF_PERICENTER":30.1398,"MEAN_ANOMALY":329.9528,"EPHEMERIS_TYPE":0,"NORAD_CAT_ID":66920,"ELEMENT_SET_NO":999,"REV_AT_EPOCH":2948,"BSTAR":0.000039738379,"MEAN_MOTION_DOT":-0.00000106,"MEAN_MOTION_DDOT":0},{"OBJECT_NAME":"HULIANWANG DIGUI-111","OBJECT_ID":"2025-285G","EPOCH":"2026-07-12T23:42:11.825568","CLASSIFICATION_TYPE":"U","MEAN_MOTION":13.29325837,"ECCENTRICITY":0.00009366,"INCLINATION":50.0129,"RA_OF_ASC_NODE":53.3743,"ARG_OF_PERICENTER":30.301,"MEAN_ANOMALY":329.7916,"EPHEMERIS_TYPE":0,"NORAD_CAT_ID":66921,"ELEMENT_SET_NO":999,"REV_AT_EPOCH":2949,"BSTAR":0.000047913045,"MEAN_MOTION_DOT":-0.00000102,"MEAN_MOTION_DDOT":0},{"OBJECT_NAME":"HULIANWANG DIGUI-112","OBJECT_ID":"2025-285H","EPOCH":"2026-07-12T23:30:06.483744","CLASSIFICATION_TYPE":"U","MEAN_MOTION":13.29325696,"ECCENTRICITY":0.0000984,"INCLINATION":50.0092,"RA_OF_ASC_NODE":53.2673,"ARG_OF_PERICENTER":27.7177,"MEAN_ANOMALY":332.3747,"EPHEMERIS_TYPE":0,"NORAD_CAT_ID":66922,"ELEMENT_SET_NO":999,"REV_AT_EPOCH":2949,"BSTAR":0.000050336549,"MEAN_MOTION_DOT":-0.00000101,"MEAN_MOTION_DDOT":0},{"OBJECT_NAME":"HULIANWANG DIGUI-113","OBJECT_ID":"2025-285J","EPOCH":"2026-07-12T23:18:13.503168","CLASSIFICATION_TYPE":"U","MEAN_MOTION":13.29324168,"ECCENTRICITY":0.00009863,"INCLINATION":50.0101,"RA_OF_ASC_NODE":53.2409,"ARG_OF_PERICENTER":27.4143,"MEAN_ANOMALY":332.6781,"EPHEMERIS_TYPE":0,"NORAD_CAT_ID":66923,"ELEMENT_SET_NO":999,"REV_AT_EPOCH":2949,"BSTAR":0.000059495049,"MEAN_MOTION_DOT":-9.6e-7,"MEAN_MOTION_DDOT":0},{"OBJECT_NAME":"HULIANWANG DIGUI-114","OBJECT_ID":"2025-287A","EPOCH":"2026-07-13T04:56:33.475200","CLASSIFICATION_TYPE":"U","MEAN_MOTION":13.24413322,"ECCENTRICITY":0.0002278,"INCLINATION":86.4931,"RA_OF_ASC_NODE":273.5753,"ARG_OF_PERICENTER":99.8873,"MEAN_ANOMALY":260.2518,"EPHEMERIS_TYPE":0,"NORAD_CAT_ID":66953,"ELEMENT_SET_NO":999,"REV_AT_EPOCH":2878,"BSTAR":0.000019331,"MEAN_MOTION_DOT":2.3e-7,"MEAN_MOTION_DDOT":0},{"OBJECT_NAME":"HULIANWANG DIGUI-115","OBJECT_ID":"2025-287B","EPOCH":"2026-07-13T04:45:12.747744","CLASSIFICATION_TYPE":"U","MEAN_MOTION":13.24400796,"ECCENTRICITY":0.0002562,"INCLINATION":86.4947,"RA_OF_ASC_NODE":273.6069,"ARG_OF_PERICENTER":98.4199,"MEAN_ANOMALY":261.7226,"EPHEMERIS_TYPE":0,"NORAD_CAT_ID":66954,"ELEMENT_SET_NO":999,"REV_AT_EPOCH":2878,"BSTAR":0.000037305,"MEAN_MOTION_DOT":3.1e-7,"MEAN_MOTION_DDOT":0},{"OBJECT_NAME":"HULIANWANG DIGUI-116","OBJECT_ID":"2025-287C","EPOCH":"2026-07-12T17:42:04.313952","CLASSIFICATION_TYPE":"U","MEAN_MOTION":13.24412954,"ECCENTRICITY":0.00023868,"INCLINATION":86.4887,"RA_OF_ASC_NODE":273.6244,"ARG_OF_PERICENTER":98.1752,"MEAN_ANOMALY":261.9653,"EPHEMERIS_TYPE":0,"NORAD_CAT_ID":66955,"ELEMENT_SET_NO":999,"REV_AT_EPOCH":2872,"BSTAR":0.000032081204,"MEAN_MOTION_DOT":2.8e-7,"MEAN_MOTION_DDOT":0},{"OBJECT_NAME":"HULIANWANG DIGUI-117","OBJECT_ID":"2025-287D","EPOCH":"2026-07-13T04:23:58.498080","CLASSIFICATION_TYPE":"U","MEAN_MOTION":13.24412654,"ECCENTRICITY":0.0001102,"INCLINATION":86.4948,"RA_OF_ASC_NODE":273.6009,"ARG_OF_PERICENTER":61.8019,"MEAN_ANOMALY":298.3226,"EPHEMERIS_TYPE":0,"NORAD_CAT_ID":66956,"ELEMENT_SET_NO":999,"REV_AT_EPOCH":2878,"BSTAR":0.00008922,"MEAN_MOTION_DOT":5.3e-7,"MEAN_MOTION_DDOT":0},{"OBJECT_NAME":"HULIANWANG DIGUI-118","OBJECT_ID":"2025-287E","EPOCH":"2026-07-13T04:13:04.767168","CLASSIFICATION_TYPE":"U","MEAN_MOTION":13.2441208,"ECCENTRICITY":0.00023326,"INCLINATION":86.4924,"RA_OF_ASC_NODE":273.5449,"ARG_OF_PERICENTER":100.0429,"MEAN_ANOMALY":260.0968,"EPHEMERIS_TYPE":0,"NORAD_CAT_ID":66957,"ELEMENT_SET_NO":999,"REV_AT_EPOCH":2878,"BSTAR":0.00010479955,"MEAN_MOTION_DOT":6e-7,"MEAN_MOTION_DDOT":0},{"OBJECT_NAME":"HULIANWANG DIGUI-119","OBJECT_ID":"2025-295A","EPOCH":"2026-07-13T11:15:48.569760","CLASSIFICATION_TYPE":"U","MEAN_MOTION":13.29324428,"ECCENTRICITY":0.0001112,"INCLINATION":50.0044,"RA_OF_ASC_NODE":291.5217,"ARG_OF_PERICENTER":183.8111,"MEAN_ANOMALY":176.2753,"EPHEMERIS_TYPE":0,"NORAD_CAT_ID":67059,"ELEMENT_SET_NO":999,"REV_AT_EPOCH":2899,"BSTAR":0.000084521,"MEAN_MOTION_DOT":-8.5e-7,"MEAN_MOTION_DDOT":0},{"OBJECT_NAME":"HULIANWANG DIGUI-120","OBJECT_ID":"2025-295B","EPOCH":"2026-07-13T10:51:45.961056","CLASSIFICATION_TYPE":"U","MEAN_MOTION":13.29324435,"ECCENTRICITY":0.0001169,"INCLINATION":50.0049,"RA_OF_ASC_NODE":291.4444,"ARG_OF_PERICENTER":186.0583,"MEAN_ANOMALY":174.0275,"EPHEMERIS_TYPE":0,"NORAD_CAT_ID":67060,"ELEMENT_SET_NO":999,"REV_AT_EPOCH":2899,"BSTAR":0.000072698,"MEAN_MOTION_DOT":-9e-7,"MEAN_MOTION_DDOT":0},{"OBJECT_NAME":"HULIANWANG DIGUI-121","OBJECT_ID":"2025-295C","EPOCH":"2026-07-13T11:03:47.471040","CLASSIFICATION_TYPE":"U","MEAN_MOTION":13.29325803,"ECCENTRICITY":0.0001031,"INCLINATION":50.0017,"RA_OF_ASC_NODE":291.4152,"ARG_OF_PERICENTER":183.4409,"MEAN_ANOMALY":176.6456,"EPHEMERIS_TYPE":0,"NORAD_CAT_ID":67061,"ELEMENT_SET_NO":999,"REV_AT_EPOCH":2899,"BSTAR":0.000080609,"MEAN_MOTION_DOT":-8.7e-7,"MEAN_MOTION_DDOT":0},{"OBJECT_NAME":"HULIANWANG DIGUI-122","OBJECT_ID":"2025-295D","EPOCH":"2026-07-13T10:39:37.444032","CLASSIFICATION_TYPE":"U","MEAN_MOTION":13.29324279,"ECCENTRICITY":0.0001137,"INCLINATION":50.0043,"RA_OF_ASC_NODE":291.3913,"ARG_OF_PERICENTER":183.4526,"MEAN_ANOMALY":176.6338,"EPHEMERIS_TYPE":0,"NORAD_CAT_ID":67062,"ELEMENT_SET_NO":999,"REV_AT_EPOCH":2899,"BSTAR":0.000066178,"MEAN_MOTION_DOT":-9.3e-7,"MEAN_MOTION_DDOT":0},{"OBJECT_NAME":"HULIANWANG DIGUI-123","OBJECT_ID":"2025-295E","EPOCH":"2026-07-13T10:27:40.596192","CLASSIFICATION_TYPE":"U","MEAN_MOTION":13.29323885,"ECCENTRICITY":0.0001048,"INCLINATION":50.0045,"RA_OF_ASC_NODE":291.352,"ARG_OF_PERICENTER":183.8048,"MEAN_ANOMALY":176.2817,"EPHEMERIS_TYPE":0,"NORAD_CAT_ID":67063,"ELEMENT_SET_NO":999,"REV_AT_EPOCH":2899,"BSTAR":0.000069751,"MEAN_MOTION_DOT":-9.2e-7,"MEAN_MOTION_DDOT":0}]}
