HULIANWANG DIGUI-108    
1 66918U 25285D   26193.93744142 -.00000103  00000+0  44432-4 0  9992
2 66918  50.0057  53.6441 0000990  28.7808 331.3119 13.29325842 29486
HULIANWANG DIGUI-109    
1 66919U 25285E   26193.85377576 -.00000110  00000+0  29927-4 0  9997
2 66919  50.0081  53.9137 0000922  37.8748 322.2189 13.29316515 29481
HULIANWANG DIGUI-110    
1 66920U 25285F   26193.92077636 -.00000106  00000+0  39738-4 0  9997
2 66920  50.0114  53.6579 0000937  30.1398 329.9528 13.29326327 29483
HULIANWANG DIGUI-111    
1 66921U 25285G   26193.98763687 -.00000102  00000+0  47913-4 0  9992
2 66921  50.0129  53.3743 0000936  30.3010 329.7916 13.29325837 29497
HULIANWANG DIGUI-112    
1 66922U 25285H   26193.97924171 -.00000101  00000+0  50337-4 0  9992
2 66922  50.0092  53.2673 0000984  27.7177 332.3747 13.29325696 29490
HULIANWANG DIGUI-113    
1 66923U 25285J   26193.97098962 -.00000096  00000+0  59495-4 0  9990
2 66923  50.0101  53.2409 0000986  27.4143 332.6781 13.29324168 29495
HULIANWANG DIGUI-114    
1 66953U 25287A   26194.20594300  .00000023  00000+0  19331-4 0  9993
2 66953  86.4931 273.5753 0002278  99.8873 260.2518 13.24413322 28781
HULIANWANG DIGUI-115    
1 66954U 25287B   26194.19806421  .00000031  00000+0  37305-4 0  9992
2 66954  86.4947 273.6069 0002562  98.4199 261.7226 13.24400796 28785
HULIANWANG DIGUI-116    
1 66955U 25287C   26193.73754993  .00000028  00000+0  32081-4 0  9990
2 66955  86.4887 273.6244 0002386  98.1752 261.9653 13.24412954 28729
HULIANWANG DIGUI-117    
1 66956U 25287D   26194.18331595  .00000053  00000+0  89220-4 0  9995
2 66956  86.4948 273.6009 0001102  61.8019 298.3226 13.24412654 28788
HULIANWANG DIGUI-118    
1 66957U 25287E   26194.17574962  .00000060  00000+0  10480-3 0  9991
2 66957  86.4924 273.5449 0002332 100.0429 260.0968 13.24412080 28789
HULIANWANG DIGUI-119    
1 67059U 25295A   26194.46931215 -.00000085  00000+0  84521-4 0  9990
2 67059  50.0044 291.5217 0001112 183.8111 176.2753 13.29324428 28994
HULIANWANG DIGUI-120    
1 67060U 25295B   26194.45261529 -.00000090  00000+0  72698-4 0  9993
2 67060  50.0049 291.4444 0001169 186.0583 174.0275 13.29324435 28995
HULIANWANG DIGUI-121    
1 67061U 25295C   26194.46096610 -.00000087  00000+0  80609-4 0  9999
2 67061  50.0017 291.4152 0001031 183.4409 176.6456 13.29325803 28992
HULIANWANG DIGUI-122    
1 67062U 25295D   26194.44418338 -.00000093  00000+0  66178-4 0  9995
2 67062  50.0043 291.3913 0001137 183.4526 176.6338 13.29324279 28998
HULIANWANG DIGUI-123    
1 67063U 25295E   26194.43588653 -.00000092  00000+0  69751-4 0  9992
2 67063  50.0045 291.3520 0001048 183.8048 176.2817 13.29323885 28999
